[{
    "OBJECT_NAME": "STARLINK-1619",
    "OBJECT_ID": "2020-057K",
    "EPOCH": "2020-09-09T12:00:00.999648",
    "MEAN_MOTION": 15.62765476,
    "ECCENTRICITY": 0.0001287,
    "INCLINATION": 52.9992,
    "RA_OF_ASC_NODE": 332.7477,
    "ARG_OF_PERICENTER": 55.4023,
    "MEAN_ANOMALY": 50.9941,
    "EPHEMERIS_TYPE": 0,
    "CLASSIFICATION_TYPE": "U",
    "NORAD_CAT_ID": 46126,
    "ELEMENT_SET_NO": 999,
    "REV_AT_EPOCH": 412,
    "BSTAR": 1.0455e-5,
    "MEAN_MOTION_DOT": 4.23e-6,
    "MEAN_MOTION_DDOT": 0
},{
    "OBJECT_NAME": "STARLINK-1621",
    "OBJECT_ID": "2020-057L",
    "EPOCH": "2020-09-09T06:00:00.999648",
    "MEAN_MOTION": 15.63874994,
    "ECCENTRICITY": 0.0001998,
    "INCLINATION": 52.9996,
    "RA_OF_ASC_NODE": 333.9445,
    "ARG_OF_PERICENTER": 319.8577,
    "MEAN_ANOMALY": 192.9744,
    "EPHEMERIS_TYPE": 0,
    "CLASSIFICATION_TYPE": "U",
    "NORAD_CAT_ID": 46127,
    "ELEMENT_SET_NO": 999,
    "REV_AT_EPOCH": 154,
    "BSTAR": 0.00015471,
    "MEAN_MOTION_DOT": 0.00014287,
    "MEAN_MOTION_DDOT": 0
},{
    "OBJECT_NAME": "STARLINK-1622",
    "OBJECT_ID": "2020-057M",
    "EPOCH": "2020-09-09T06:00:00.999648",
    "MEAN_MOTION": 15.66082135,
    "ECCENTRICITY": 9.96e-5,
    "INCLINATION": 52.9979,
    "RA_OF_ASC_NODE": 333.6314,
    "ARG_OF_PERICENTER": 47.2293,
    "MEAN_ANOMALY": 252.844,
    "EPHEMERIS_TYPE": 0,
    "CLASSIFICATION_TYPE": "U",
    "NORAD_CAT_ID": 46128,
    "ELEMENT_SET_NO": 999,
    "REV_AT_EPOCH": 177,
    "BSTAR": 0.0002075,
    "MEAN_MOTION_DOT": 0.00021176,
    "MEAN_MOTION_DDOT": 0
},{
    "OBJECT_NAME": "STARLINK-1623",
    "OBJECT_ID": "2020-057N",
    "EPOCH": "2020-09-09T06:00:00.999648",
    "MEAN_MOTION": 15.62361832,
    "ECCENTRICITY": 0.0007513,
    "INCLINATION": 53.002,
    "RA_OF_ASC_NODE": 333.9906,
    "ARG_OF_PERICENTER": 303.2055,
    "MEAN_ANOMALY": 201.4945,
    "EPHEMERIS_TYPE": 0,
    "CLASSIFICATION_TYPE": "U",
    "NORAD_CAT_ID": 46129,
    "ELEMENT_SET_NO": 999,
    "REV_AT_EPOCH": 177,
    "BSTAR": 0.001854,
    "MEAN_MOTION_DOT": 0.0017039,
    "MEAN_MOTION_DDOT": 0
},{
    "OBJECT_NAME": "STARLINK-1624",
    "OBJECT_ID": "2020-057P",
    "EPOCH": "2020-09-09T12:00:00.999648",
    "MEAN_MOTION": 15.62714547,
    "ECCENTRICITY": 0.0001813,
    "INCLINATION": 53.0001,
    "RA_OF_ASC_NODE": 332.7262,
    "ARG_OF_PERICENTER": 313.7786,
    "MEAN_ANOMALY": 168.6922,
    "EPHEMERIS_TYPE": 0,
    "CLASSIFICATION_TYPE": "U",
    "NORAD_CAT_ID": 46130,
    "ELEMENT_SET_NO": 999,
    "REV_AT_EPOCH": 412,
    "BSTAR": 2.6715e-5,
    "MEAN_MOTION_DOT": 1.908e-5,
    "MEAN_MOTION_DDOT": 0
},{
    "OBJECT_NAME": "STARLINK-1625",
    "OBJECT_ID": "2020-057Q",
    "EPOCH": "2020-09-09T06:00:00.999648",
    "MEAN_MOTION": 15.66268045,
    "ECCENTRICITY": 0.0001529,
    "INCLINATION": 52.9986,
    "RA_OF_ASC_NODE": 333.6353,
    "ARG_OF_PERICENTER": 65.5127,
    "MEAN_ANOMALY": 239.8183,
    "EPHEMERIS_TYPE": 0,
    "CLASSIFICATION_TYPE": "U",
    "NORAD_CAT_ID": 46131,
    "ELEMENT_SET_NO": 999,
    "REV_AT_EPOCH": 182,
    "BSTAR": 0.0002292,
    "MEAN_MOTION_DOT": 0.00023635,
    "MEAN_MOTION_DDOT": 0
},{
    "OBJECT_NAME": "STARLINK-1630",
    "OBJECT_ID": "2020-057R",
    "EPOCH": "2020-09-09T12:00:00.999648",
    "MEAN_MOTION": 15.6278851,
    "ECCENTRICITY": 0.0001254,
    "INCLINATION": 53.0004,
    "RA_OF_ASC_NODE": 332.7491,
    "ARG_OF_PERICENTER": 50.2231,
    "MEAN_ANOMALY": 58.8354,
    "EPHEMERIS_TYPE": 0,
    "CLASSIFICATION_TYPE": "U",
    "NORAD_CAT_ID": 46132,
    "ELEMENT_SET_NO": 999,
    "REV_AT_EPOCH": 412,
    "BSTAR": -0.00070071,
    "MEAN_MOTION_DOT": -0.00064277,
    "MEAN_MOTION_DDOT": 0
},{
    "OBJECT_NAME": "STARLINK-1637",
    "OBJECT_ID": "2020-057S",
    "EPOCH": "2020-09-09T06:00:00.999648",
    "MEAN_MOTION": 15.66276573,
    "ECCENTRICITY": 0.000228,
    "INCLINATION": 52.9982,
    "RA_OF_ASC_NODE": 333.5996,
    "ARG_OF_PERICENTER": 309.4367,
    "MEAN_ANOMALY": 9.5331,
    "EPHEMERIS_TYPE": 0,
    "CLASSIFICATION_TYPE": "U",
    "NORAD_CAT_ID": 46133,
    "ELEMENT_SET_NO": 999,
    "REV_AT_EPOCH": 177,
    "BSTAR": 0.00019984,
    "MEAN_MOTION_DOT": 0.00020536,
    "MEAN_MOTION_DDOT": 0
},{
    "OBJECT_NAME": "STARLINK-1638",
    "OBJECT_ID": "2020-057T",
    "EPOCH": "2020-09-09T06:00:00.999648",
    "MEAN_MOTION": 15.62776388,
    "ECCENTRICITY": 0.0004689,
    "INCLINATION": 53.0006,
    "RA_OF_ASC_NODE": 333.9892,
    "ARG_OF_PERICENTER": 281.9128,
    "MEAN_ANOMALY": 212.8797,
    "EPHEMERIS_TYPE": 0,
    "CLASSIFICATION_TYPE": "U",
    "NORAD_CAT_ID": 46134,
    "ELEMENT_SET_NO": 999,
    "REV_AT_EPOCH": 177,
    "BSTAR": 0.00026129,
    "MEAN_MOTION_DOT": 0.00023489,
    "MEAN_MOTION_DDOT": 0
},{
    "OBJECT_NAME": "STARLINK-1639",
    "OBJECT_ID": "2020-057U",
    "EPOCH": "2020-09-09T06:00:00.999648",
    "MEAN_MOTION": 15.62737464,
    "ECCENTRICITY": 9.92e-5,
    "INCLINATION": 52.9997,
    "RA_OF_ASC_NODE": 333.9441,
    "ARG_OF_PERICENTER": 59.5623,
    "MEAN_ANOMALY": 94.4115,
    "EPHEMERIS_TYPE": 0,
    "CLASSIFICATION_TYPE": "U",
    "NORAD_CAT_ID": 46135,
    "ELEMENT_SET_NO": 999,
    "REV_AT_EPOCH": 177,
    "BSTAR": -0.00011957,
    "MEAN_MOTION_DOT": -0.0001146,
    "MEAN_MOTION_DDOT": 0
},{
    "OBJECT_NAME": "STARLINK-1643",
    "OBJECT_ID": "2020-057V",
    "EPOCH": "2020-09-09T06:00:00.999648",
    "MEAN_MOTION": 15.62929345,
    "ECCENTRICITY": 0.0001446,
    "INCLINATION": 53.0016,
    "RA_OF_ASC_NODE": 333.9173,
    "ARG_OF_PERICENTER": 43.1186,
    "MEAN_ANOMALY": 137.1476,
    "EPHEMERIS_TYPE": 0,
    "CLASSIFICATION_TYPE": "U",
    "NORAD_CAT_ID": 46136,
    "ELEMENT_SET_NO": 999,
    "REV_AT_EPOCH": 177,
    "BSTAR": -0.014435,
    "MEAN_MOTION_DOT": -0.0119782,
    "MEAN_MOTION_DDOT": 0
},{
    "OBJECT_NAME": "STARLINK-1586",
    "OBJECT_ID": "2020-057W",
    "EPOCH": "2020-09-09T12:00:00.999648",
    "MEAN_MOTION": 15.66315341,
    "ECCENTRICITY": 0.000134,
    "INCLINATION": 52.9996,
    "RA_OF_ASC_NODE": 332.3781,
    "ARG_OF_PERICENTER": 47.8148,
    "MEAN_ANOMALY": 239.6698,
    "EPHEMERIS_TYPE": 0,
    "CLASSIFICATION_TYPE": "U",
    "NORAD_CAT_ID": 46137,
    "ELEMENT_SET_NO": 999,
    "REV_AT_EPOCH": 412,
    "BSTAR": -1.729e-5,
    "MEAN_MOTION_DOT": -2.384e-5,
    "MEAN_MOTION_DDOT": 0
},{
    "OBJECT_NAME": "STARLINK-1590",
    "OBJECT_ID": "2020-057X",
    "EPOCH": "2020-09-09T12:00:00.999648",
    "MEAN_MOTION": 15.62753081,
    "ECCENTRICITY": 0.000161,
    "INCLINATION": 52.9986,
    "RA_OF_ASC_NODE": 332.7589,
    "ARG_OF_PERICENTER": 60.5476,
    "MEAN_ANOMALY": 40.8762,
    "EPHEMERIS_TYPE": 0,
    "CLASSIFICATION_TYPE": "U",
    "NORAD_CAT_ID": 46138,
    "ELEMENT_SET_NO": 999,
    "REV_AT_EPOCH": 412,
    "BSTAR": -1.4988e-6,
    "MEAN_MOTION_DOT": -6.72e-6,
    "MEAN_MOTION_DDOT": 0
},{
    "OBJECT_NAME": "STARLINK-1592",
    "OBJECT_ID": "2020-057Y",
    "EPOCH": "2020-09-09T12:00:00.999648",
    "MEAN_MOTION": 15.62785704,
    "ECCENTRICITY": 0.0001368,
    "INCLINATION": 53.0008,
    "RA_OF_ASC_NODE": 332.7298,
    "ARG_OF_PERICENTER": 56.5092,
    "MEAN_ANOMALY": 56.3257,
    "EPHEMERIS_TYPE": 0,
    "CLASSIFICATION_TYPE": "U",
    "NORAD_CAT_ID": 46139,
    "ELEMENT_SET_NO": 999,
    "REV_AT_EPOCH": 412,
    "BSTAR": -0.00038675,
    "MEAN_MOTION_DOT": -0.00035836,
    "MEAN_MOTION_DDOT": 0
}]
